NORAD_CAT_ID,OBJECT_NAME,OBJECT_TYPE,EPOCH,MEAN_MOTION,ECCENTRICITY,INCLINATION,RA_OF_ASC_NODE,ARG_OF_PERICENTER,MEAN_ANOMALY,BSTAR,MEAN_MOTION_DOT,MEAN_MOTION_DDOT,TLE_LINE0,TLE_LINE1,TLE_LINE2,SEMIMAJOR_AXIS,PERIOD,APOGEE,PERIGEE,DECAYED
53787.0,STARLINK-4743,PAYLOAD,2023-03-04 17:57:14,15.08864556,6.9e-05,53.2172,176.2766,110.9839,249.1227,0.0033078,0.00052785,0.0,0 STARLINK-4743,1 53787U 22111Q   23063.74808654  .00052785  00000-0  33078-2 0  9993,2 53787  53.2172 176.2766 0000690 110.9839 249.1227 15.08864556 27490,6917.805,95.436,540.148,539.193,0.0
53787.0,STARLINK-4743,PAYLOAD,2023-03-05 00:18:47,15.08842403,8.4e-05,53.2172,175.0866,122.236,237.8713,0.0012968,0.00020412,0.0,0 STARLINK-4743,1 53787U 22111Q   23064.01305155  .00020412  00000-0  12968-2 0  9999,2 53787  53.2172 175.0866 0000840 122.2360 237.8713 15.08842403 26726,6917.873,95.437,540.319,539.157,0.0
53787.0,STARLINK-4743,PAYLOAD,2023-03-06 00:09:33,15.08874081,0.0003016,53.2165,170.6248,260.1033,99.9619,0.0025349,0.00040326,0.0,0 STARLINK-4743,1 53787U 22111Q   23065.00663910  .00040326  00000-0  25349-2 0  9998,2 53787  53.2165 170.6248 0003016 260.1033  99.9619 15.08874081 26875,6917.776,95.435,541.728,537.555,0.0
53787.0,STARLINK-4743,PAYLOAD,2023-03-06 11:17:16,15.08864822,4.17e-05,53.2171,168.5458,90.9322,269.1718,0.0032536,0.0005191,0.0,0 STARLINK-4743,1 53787U 22111Q   23065.47033184  .00051910  00000-0  32536-2 0  9990,2 53787  53.2171 168.5458 0000417  90.9322 269.1718 15.08864822 26944,6917.805,95.436,539.958,539.381,0.0
53787.0,STARLINK-4743,PAYLOAD,2023-03-06 16:03:25,15.08883243,6.38e-05,53.217,167.6546,80.9247,279.1817,0.0028565,0.00045521,0.0,0 STARLINK-4743,1 53787U 22111Q   23065.66904710  .00045521  00000-0  28565-2 0  9991,2 53787  53.2170 167.6546 0000638  80.9247 279.1817 15.08883243 27783,6917.748,95.435,540.055,539.172,0.0
53787.0,STARLINK-4743,PAYLOAD,2023-03-07 06:21:54,15.0882436,9.21e-05,53.2172,164.9779,102.0451,258.0644,-0.00043944,-7.271e-05,0.0,0 STARLINK-4743,1 53787U 22111Q   23066.26521487 -.00007271  00000-0 -43944-3 0  9995,2 53787  53.2172 164.9779 0000921 102.0451 258.0644 15.08824360 27061,6917.928,95.439,540.43,539.156,0.0
53787.0,STARLINK-4743,PAYLOAD,2023-03-07 15:54:13,15.08852977,0.0001298,53.217,163.1955,84.363,275.7511,0.003134,0.00049961,0.0,0 STARLINK-4743,1 53787U 22111Q   23066.66265986  .00049961  00000-0  31340-2 0  9994,2 53787  53.2170 163.1955 0001298  84.3630 275.7511 15.08852977 27126,6917.841,95.437,540.604,538.808,0.0
53787.0,STARLINK-4743,PAYLOAD,2023-03-07 23:51:10,15.08824516,0.0003972,53.2099,161.7078,90.1208,270.0239,0.0014102,0.00022219,0.0,0 STARLINK-4743,1 53787U 22111Q   23066.99387402  .00022219  00000-0  14102-2 0  9992,2 53787  53.2099 161.7078 0003972  90.1208 270.0239 15.08824516 27171,6917.928,95.439,542.541,537.045,0.0
53787.0,STARLINK-4743,PAYLOAD,2023-03-08 17:20:24,15.08864105,0.0001131,53.2177,158.4353,117.2156,242.8952,0.0021167,0.00033582,0.0,0 STARLINK-4743,1 53787U 22111Q   23067.72250042  .00033582  00000-0  21167-2 0  9997,2 53787  53.2177 158.4353 0001131 117.2156 242.8952 15.08864105 27284,6917.807,95.436,540.454,538.889,0.0
53787.0,STARLINK-4743,PAYLOAD,2023-03-09 15:35:47,15.08885906,0.0001797,53.2176,154.2684,119.0049,241.1123,0.0025153,0.00040021,0.0,0 STARLINK-4743,1 53787U 22111Q   23068.64985319  .00040021  00000-0  25153-2 0  9996,2 53787  53.2176 154.2684 0001797 119.0049 241.1123 15.08885906 27423,6917.74,95.435,540.848,538.362,0.0
53787.0,STARLINK-4743,PAYLOAD,2023-03-10 05:54:17,15.08803018,0.0001369,53.2175,151.5924,133.8086,226.302,0.00083469,0.00013008,0.0,0 STARLINK-4743,1 53787U 22111Q   23069.24603147  .00013008  00000-0  83469-3 0  9999,2 53787  53.2175 151.5924 0001369 133.8086 226.3020 15.08803018 27514,6917.993,95.44,540.806,538.911,0.0
53787.0,STARLINK-4743,PAYLOAD,2023-03-10 10:40:26,15.08821245,0.0001597,53.2171,150.7034,119.6281,240.487,0.0020234,0.00032045,0.0,0 STARLINK-4743,1 53787U 22111Q   23069.44475536  .00032045  00000-0  20234-2 0  9992,2 53787  53.2171 150.7034 0001597 119.6281 240.4870 15.08821245 27540,6917.938,95.439,540.908,538.698,0.0
53787.0,STARLINK-4743,PAYLOAD,2023-03-10 21:48:08,15.08850841,0.0001081,53.2164,148.6228,102.0286,258.0828,0.002038,0.00032305,0.0,0 STARLINK-4743,1 53787U 22111Q   23069.90843707  .00032305  00000-0  20380-2 0  9993,2 53787  53.2164 148.6228 0001081 102.0286 258.0828 15.08850841 28422,6917.847,95.437,540.46,538.964,0.0
53787.0,STARLINK-4743,PAYLOAD,2023-03-11 10:31:13,15.08866528,0.0001484,53.2175,146.2467,108.9883,251.127,0.0015223,0.0002404,0.0,0 STARLINK-4743,1 53787U 22111Q   23070.43835341  .00024040  00000-0  15223-2 0  9995,2 53787  53.2175 146.2467 0001484 108.9883 251.1270 15.08866528 28501,6917.799,95.436,540.691,538.638,0.0
53787.0,STARLINK-4743,PAYLOAD,2023-03-11 16:52:45,15.08888689,0.0001631,53.2178,145.0542,100.3582,259.7594,0.0019457,0.00030855,0.0,0 STARLINK-4743,1 53787U 22111Q   23070.70330589  .00030855  00000-0  19457-2 0  9993,2 53787  53.2178 145.0542 0001631 100.3582 259.7594 15.08888689 27730,6917.732,95.434,540.725,538.468,0.0
53787.0,STARLINK-4743,PAYLOAD,2023-03-12 18:18:56,15.08870537,0.0001686,53.217,140.3022,58.157,301.9586,0.002263,0.00035942,0.0,0 STARLINK-4743,1 53787U 22111Q   23071.76315215  .00035942  00000-0  22630-2 0  9998,2 53787  53.2170 140.3022 0001686  58.1570 301.9586 15.08870537 27891,6917.787,95.436,540.818,538.486,0.0
53787.0,STARLINK-4743,PAYLOAD,2023-03-14 05:17:25,15.08857729,0.0001428,53.2168,133.7596,81.153,278.9624,0.00092682,0.000145,0.0,0 STARLINK-4743,1 53787U 22111Q   23073.22043093  .00014500  00000-0  92682-3 0  9995,2 53787  53.2168 133.7596 0001428  81.1530 278.9624 15.08857729 28116,6917.826,95.436,540.679,538.703,0.0
53787.0,STARLINK-4743,PAYLOAD,2023-03-14 13:14:20,15.08852372,0.0001254,53.2158,132.2655,135.8771,224.2321,0.00053199,8.192e-05,0.0,0 STARLINK-4743,1 53787U 22111Q   23073.55162777  .00008192  00000-0  53199-3 0  9992,2 53787  53.2158 132.2655 0001254 135.8771 224.2321 15.08852372 28168,6917.843,95.437,540.575,538.84,0.0
53787.0,STARLINK-4743,PAYLOAD,2023-03-14 21:11:16,15.08830698,0.0001055,53.2156,130.7813,106.0708,254.04,0.001117,0.00017529,0.0,0 STARLINK-4743,1 53787U 22111Q   23073.88282726  .00017529  00000-0  11170-2 0  9991,2 53787  53.2156 130.7813 0001055 106.0708 254.0400 15.08830698 29026,6917.909,95.438,540.504,539.044,0.0
53787.0,STARLINK-4743,PAYLOAD,2023-03-15 11:29:43,15.08891466,0.0001038,53.2158,128.1046,114.1506,245.9595,0.002536,0.00040361,0.0,0 STARLINK-4743,1 53787U 22111Q   23074.47897694  .00040361  00000-0  25360-2 0  9999,2 53787  53.2158 128.1046 0001038 114.1506 245.9595 15.08891466 28308,6917.723,95.434,540.306,538.87,0.0
53787.0,STARLINK-4743,PAYLOAD,2023-03-15 13:05:06,15.08895374,0.0001063,53.2158,127.8072,114.1434,245.9669,0.0024124,0.00038373,0.0,0 STARLINK-4743,1 53787U 22111Q   23074.54521459  .00038373  00000-0  24124-2 0  9997,2 53787  53.2158 127.8072 0001063 114.1434 245.9669 15.08895374 29126,6917.711,95.434,540.311,538.841,0.0
53787.0,STARLINK-4743,PAYLOAD,2023-03-15 21:02:02,15.08861273,0.0001259,53.2159,126.3201,91.9961,268.1175,0.00053987,8.319e-05,0.0,0 STARLINK-4743,1 53787U 22111Q   23074.87641659  .00008319  00000-0  53987-3 0  9995,2 53787  53.2159 126.3201 0001259  91.9961 268.1175 15.08861273 29174,6917.815,95.436,540.551,538.809,0.0
53787.0,STARLINK-4743,PAYLOAD,2023-03-16 04:58:58,15.08838236,0.0001254,53.216,124.8334,94.2375,265.876,0.00059854,9.25e-05,0.0,0 STARLINK-4743,1 53787U 22111Q   23075.20762055  .00009250  00000-0  59854-3 0  9991,2 53787  53.2160 124.8334 0001254  94.2375 265.8760 15.08838236 28419,6917.886,95.438,540.618,538.883,0.0
53787.0,STARLINK-4743,PAYLOAD,2023-03-16 12:55:54,15.08838515,0.0001368,53.2164,123.3469,89.1768,270.9381,0.0019238,0.00030461,0.0,0 STARLINK-4743,1 53787U 22111Q   23075.53882539  .00030461  00000-0  19238-2 0  9996,2 53787  53.2164 123.3469 0001368  89.1768 270.9381 15.08838515 29272,6917.885,95.438,540.696,538.804,0.0
53787.0,STARLINK-4743,PAYLOAD,2023-03-16 14:31:17,15.088412,0.0001425,53.2164,123.0494,89.7571,270.3584,0.0019344,0.00030633,0.0,0 STARLINK-4743,1 53787U 22111Q   23075.60506564  .00030633  00000-0  19344-2 0  9994,2 53787  53.2164 123.0494 0001425  89.7571 270.3584 15.08841200 29284,6917.877,95.437,540.728,538.756,0.0
53787.0,STARLINK-4743,PAYLOAD,2023-03-17 06:25:10,15.08825645,0.0001259,53.2168,120.0764,95.1085,265.005,0.00086855,0.00013557,0.0,0 STARLINK-4743,1 53787U 22111Q   23076.26747702  .00013557  00000-0  86855-3 0  9996,2 53787  53.2168 120.0764 0001259  95.1085 265.0050 15.08825645 28576,6917.924,95.438,540.66,538.918,0.0
53787.0,STARLINK-4743,PAYLOAD,2023-03-17 12:46:42,15.08832764,0.0001393,53.2169,118.8875,96.367,263.7481,0.0014392,0.00022686,0.0,0 STARLINK-4743,1 53787U 22111Q   23076.53244028  .00022686  00000-0  14392-2 0  9998,2 53787  53.2169 118.8875 0001393  96.3670 263.7481 15.08832764 29425,6917.903,95.438,540.731,538.804,0.0
53787.0,STARLINK-4743,PAYLOAD,2023-03-18 12:37:29,15.08869437,0.0001422,53.2168,114.427,97.2559,262.8595,0.0013072,0.00020594,0.0,0 STARLINK-4743,1 53787U 22111Q   23077.52603342  .00020594  00000-0  13072-2 0  9996,2 53787  53.2168 114.4270 0001422  97.2559 262.8595 15.08869437 28763,6917.79,95.436,540.639,538.672,0.0
53787.0,STARLINK-4743,PAYLOAD,2023-03-18 18:59:02,15.08847143,0.0001746,53.2167,113.2368,99.4658,260.6531,0.00014391,2.003e-05,0.0,0 STARLINK-4743,1 53787U 22111Q   23077.79099594  .00002003  00000-0  14391-3 0  9994,2 53787  53.2167 113.2368 0001746  99.4658 260.6531 15.08847143 28801,6917.859,95.437,540.931,538.516,0.0
53787.0,STARLINK-4743,PAYLOAD,2023-03-19 12:28:15,15.08860492,0.000123,53.2166,109.9666,103.3269,256.786,0.0013356,0.00021044,0.0,0 STARLINK-4743,1 53787U 22111Q   23078.51962868  .00021044  00000-0  13356-2 0  9993,2 53787  53.2166 109.9666 0001230 103.3269 256.7860 15.08860492 29729,6917.818,95.436,540.534,538.832,0.0
